ORBCOMM FM20            
1 25416U 98046D   25274.32588269  .00002901  00000+0  10081-2 0  9991
2 25416  44.9944  38.5516 0001667 171.9357 188.1518 14.37429559419538
ORBCOMM FM16            
1 25417U 98046E   25274.26327171  .00004115  00000+0  13598-2 0  9993
2 25417  44.9939  29.0009 0004689 135.8649 224.2575 14.39214474419530
ORBCOMM FM15            
1 25418U 98046F   25274.05757920  .00003390  00000+0  11371-2 0  9991
2 25418  44.9972  35.4422 0004427 135.1704 224.9502 14.38845468419497
ORBCOMM FM14            
1 25419U 98046G   25274.32582422  .00004032  00000+0  13331-2 0  9997
2 25419  44.9960  32.0937 0003237 140.5246 219.5839 14.39235120419502
ORBCOMM FM13            
1 25420U 98046H   25274.04733838  .00002949  00000+0  10138-2 0  9994
2 25420  44.9976  42.4406 0004811 107.4701 252.6673 14.37924514418473
ORBCOMM FM21            
1 25475U 98053A   25274.00908216  .00002179  00000+0  76701-3 0  9996
2 25475  45.0066 128.2878 0002081  40.1557 319.9444 14.37560741412475
ORBCOMM FM22            
1 25476U 98053B   25274.03716855  .00002750  00000+0  93452-3 0  9993
2 25476  45.0055 122.1343 0003765  41.9352 318.1785 14.38663146412514
ORBCOMM FM23            
1 25477U 98053C   25274.27355079  .00002802  00000+0  96851-3 0  9991
2 25477  45.0065 129.0009 0003053  36.4019 323.7036 14.37772817412662
